H1 CPF  1  SGF 2022  2 15  2  5461 larets    
H2  0304206 5557    27944 2022  2 14  0  0  0 2022  2 19 23 57  0   180 1 1  0 0 0
H9
10 0 59629   2520.00000  0  -5401298.066  -2562925.728   3765988.646
10 0 59629   2700.00000  0  -6071871.414  -2535215.363   2577220.743
10 0 59629   2880.00000  0  -6519710.924  -2400712.844   1294134.996
10 0 59629   3060.00000  0  -6725786.255  -2170365.809    -36332.083
10 0 59629   3240.00000  0  -6680254.888  -1859013.049  -1365469.499
10 0 59629   3420.00000  0  -6382927.694  -1484592.343  -2644618.839
10 0 59629   3600.00000  0  -5843330.057  -1067221.721  -3826996.958
10 0 59629   3780.00000  0  -5080362.864   -628202.420  -4869432.957
10 0 59629   3960.00000  0  -4121584.976   -188993.692  -5733947.742
10 0 59629   4140.00000  0  -3002156.278    229787.405  -6389114.356
10 0 59629   4320.00000  0  -1763500.104    609293.193  -6811153.703
10 0 59629   4500.00000  0   -451748.847    933259.423  -6984747.082
10 0 59629   4680.00000  0    883969.347   1188679.591  -6903552.450
10 0 59629   4860.00000  0   2193346.710   1366317.162  -6570427.456
10 0 59629   5040.00000  0   3426774.534   1461041.826  -5997351.232
10 0 59629   5220.00000  0   4537218.468   1471976.631  -5205032.070
10 0 59629   5400.00000  0   5482028.610   1402450.513  -4222214.680
10 0 59629   5580.00000  0   6224624.918   1259758.028  -3084689.008
10 0 59629   5760.00000  0   6735979.923   1054731.687  -1834019.539
10 0 59629   5940.00000  0   6995829.841    801144.402   -516029.396
10 0 59629   6120.00000  0   6993539.313    514967.257    820910.247
10 0 59629   6300.00000  0   6728567.912    213522.519   2127705.918
10 0 59629   6480.00000  0   6210513.998    -85426.547   3356404.347
10 0 59629   6660.00000  0   5458725.287   -364598.402   4462002.294
10 0 59629   6840.00000  0   4501508.857   -608076.742   5404116.845
10 0 59629   7020.00000  0   3374988.710   -802111.778   6148453.976
10 0 59629   7200.00000  0   2121672.841   -935798.792   6668019.075
10 0 59629   7380.00000  0    788806.299  -1001607.767   6944044.340
10 0 59629   7560.00000  0   -573429.198   -995745.560   6966616.560
10 0 59629   7740.00000  0  -1913799.754   -918337.165   6734992.705
10 0 59629   7920.00000  0  -3181924.051   -773421.264   6257610.841
10 0 59629   8100.00000  0  -4330147.696   -568759.944   5551803.658
10 0 59629   8280.00000  0  -5315338.768   -315471.208   4643212.560
10 0 59629   8460.00000  0  -6100537.345    -27496.143   3564900.660
10 0 59629   8640.00000  0  -6656388.533    279080.313   2356186.353
10 0 59629   8820.00000  0  -6962300.484    586828.047   1061230.718
10 0 59629   9000.00000  0  -7007267.573    877851.519   -272583.533
10 0 59629   9180.00000  0  -6790305.243   1134706.899  -1596418.858
10 0 59629   9360.00000  0  -6320467.892   1341308.474  -2861813.092
10 0 59629   9540.00000  0  -5616455.732   1483778.846  -4022494.086
10 0 59629   9720.00000  0  -4705820.403   1551195.657  -5036099.586
10 0 59629   9900.00000  0  -3623822.742   1536196.400  -5865718.647
10 0 59629  10080.00000  0  -2412012.132   1435415.120  -6481203.793
10 0 59629  10260.00000  0  -1116595.745   1249733.486  -6860220.869
10 0 59629  10440.00000  0    213335.780    984339.393  -6989008.882
10 0 59629  10620.00000  0   1527652.847    648591.803  -6862844.376
10 0 59629  10800.00000  0   2777055.163    255695.993  -6486214.264
10 0 59629  10980.00000  0   3914909.607   -177804.188  -5872677.879
10 0 59629  11160.00000  0   4898993.379   -632700.817  -5044421.166
10 0 59629  11340.00000  0   5693089.864  -1087942.614  -4031512.336
10 0 59629  11520.00000  0   6268380.036  -1521573.506  -2870859.813
10 0 59629  11700.00000  0   6604560.380  -1911750.131  -1604894.198
10 0 59629  11880.00000  0   6690629.755  -2237791.355   -280013.356
10 0 59629  12060.00000  0   6525297.022  -2481204.497   1055151.018
10 0 59629  12240.00000  0   6116981.829  -2626633.943   2351572.994
10 0 59629  12420.00000  0   5483401.500  -2662679.277   3561692.913
10 0 59629  12600.00000  0   4650767.043  -2582538.037   4641207.729
10 0 59629  12780.00000  0   3652642.315  -2384440.776   5550708.134
10 0 59629  12960.00000  0   2528531.022  -2071864.339   6257106.930
10 0 59629  13140.00000  0   1322260.428  -1653512.541   6734802.750
10 0 59629  13320.00000  0     80244.119  -1143072.473   6966553.937
10 0 59629  13500.00000  0  -1150309.147   -558757.135   6944048.956
10 0 59629  13680.00000  0  -2323174.540     77347.852   6668169.835
10 0 59629  13860.00000  0  -3394826.425    740112.945   6148953.246
10 0 59629  14040.00000  0  -4326043.108   1402343.773   5405250.276
10 0 59629  14220.00000  0  -5083354.031   2035879.700   4464085.342
10 0 59629  14400.00000  0  -5640275.774   2612776.202   3359719.066
10 0 59629  14580.00000  0  -5978282.250   3106522.937   2132435.603
10 0 59629  14760.00000  0  -6087468.335   3493244.295    827089.991
10 0 59629  14940.00000  0  -5966868.492   3752825.086   -508544.106
10 0 59629  15120.00000  0  -5624403.598   3869897.369  -1825556.901
10 0 59629  15300.00000  0  -5076459.004   3834638.376  -3075739.634
10 0 59629  15480.00000  0  -4347106.665   3643332.515  -4213391.999
10 0 59629  15660.00000  0  -3467019.619   3298669.726  -5197010.960
10 0 59629  15840.00000  0  -2472145.824   2809771.616  -5990792.366
10 0 59629  16020.00000  0  -1402212.977   2191951.780  -6565899.607
10 0 59629  16200.00000  0   -299126.282   1466221.238  -6901464.982
10 0 59629  16380.00000  0    794668.616    658563.869  -6985298.445
10 0 59629  16560.00000  0   1837801.238   -200989.968  -6814303.801
10 0 59629  16740.00000  0   2791526.943  -1079467.895  -6394592.045
10 0 59629  16920.00000  0   3621158.584  -1942203.285  -5741287.230
10 0 59629  17100.00000  0   4297339.139  -2754188.316  -4878031.108
10 0 59629  17280.00000  0   4797114.655  -3481496.019  -3836184.261
10 0 59629  17460.00000  0   5104756.816  -4092710.043  -2653731.501
10 0 59629  17640.00000  0   5212302.781  -4560299.663  -1373920.949
10 0 59629  17820.00000  0   5119778.005  -4861873.933    -43673.492
10 0 59629  18000.00000  0   4835079.744  -4981248.104   1288176.617
10 0 59629  18180.00000  0   4373521.547  -4909256.969   2572732.945
10 0 59629  18360.00000  0   3757062.398  -4644269.404   3762889.048
10 0 59629  18540.00000  0   3013266.815  -4192381.752   4815095.736
10 0 59629  18720.00000  0   2174052.560  -3567281.824   5690967.249
10 0 59629  18900.00000  0   1274296.875  -2789797.921   6358663.612
10 0 59629  19080.00000  0    350368.084  -1887160.556   6794004.731
10 0 59629  19260.00000  0   -561348.728   -892017.294   6981289.193
10 0 59629  19440.00000  0  -1425873.555    158760.875   6913812.515
10 0 59629  19620.00000  0  -2210957.070   1225442.437   6594080.101
10 0 59629  19800.00000  0  -2888270.444   2266923.321   6033713.786
10 0 59629  19980.00000  0  -3434423.740   3242295.631   5253056.250
10 0 59629  20160.00000  0  -3831784.044   4112450.152   4280477.911
10 0 59629  20340.00000  0  -4069063.688   4841656.463   3151392.655
10 0 59629  20520.00000  0  -4141650.452   5399057.237   1907000.970
10 0 59629  20700.00000  0  -4051659.469   5760002.979    592794.574
10 0 59629  20880.00000  0  -3807704.486   5907161.009   -743119.868
10 0 59629  21060.00000  0  -3424394.546   5831341.065  -2051820.817
10 0 59629  21240.00000  0  -2921571.766   5531979.166  -3285414.259
10 0 59629  21420.00000  0  -2323333.916   5017257.713  -4398821.658
10 0 59629  21600.00000  0  -1656903.701   4303861.769  -5351438.465
10 0 59629  21780.00000  0   -951402.950   3416395.185  -6108596.676
10 0 59629  21960.00000  0   -236590.952   2386490.186  -6642793.237
10 0 59629  22140.00000  0    458379.883   1251646.321  -6934642.451
10 0 59629  22320.00000  0   1106136.483     53855.073  -6973535.664
10 0 59629  22500.00000  0   1682149.613  -1161945.897  -6758002.956
10 0 59629  22680.00000  0   2165653.497  -2349540.442  -6295767.468
10 0 59629  22860.00000  0   2540394.759  -3463170.263  -5603499.880
10 0 59629  23040.00000  0   2795190.950  -4459299.738  -4706272.649
10 0 59629  23220.00000  0   2924274.158  -5298342.627  -3636702.310
10 0 59629  23400.00000  0   2927403.013  -5946276.796  -2433808.465
10 0 59629  23580.00000  0   2809738.157  -6376084.842  -1141610.557
10 0 59629  23760.00000  0   2581480.865  -6568939.454    192498.288
10 0 59629  23940.00000  0   2257284.155  -6515060.673   1519535.238
10 0 59629  24120.00000  0   1855468.962  -6214196.792   2790784.910
10 0 59629  24300.00000  0   1397085.241  -5675697.340   3959646.038
10 0 59629  24480.00000  0    904871.433  -4918181.199   4983372.859
10 0 59629  24660.00000  0    402169.739  -3968829.939   5824643.757
10 0 59629  24840.00000  0    -88148.964  -2862341.365   6452900.766
10 0 59629  25020.00000  0   -544696.813  -1639600.065   6845409.138
10 0 59629  25200.00000  0   -948475.589   -346138.165   6988022.732
10 0 59629  25380.00000  0  -1283647.349    969564.998   6875652.647
10 0 59629  25560.00000  0  -1538144.111   2257889.868   6512426.869
10 0 59629  25740.00000  0  -1704097.079   3469930.313   5911542.746
10 0 59629  25920.00000  0  -1778074.622   4559339.435   5094816.941
10 0 59629  26100.00000  0  -1761121.670   5484111.018   4091939.769
10 0 59629  26280.00000  0  -1658599.128   6208233.130   2939440.423
10 0 59629  26460.00000  0  -1479829.634   6703140.547   1679385.879
10 0 59629  26640.00000  0  -1237560.837   6948899.121    357850.111
10 0 59629  26820.00000  0   -947266.685   6935055.998   -976789.820
10 0 59629  27000.00000  0   -626324.192   6661109.071  -2275666.454
10 0 59629  27180.00000  0   -293108.014   6136551.392  -3491260.363
10 0 59629  27360.00000  0     33943.694   5380501.678  -4579165.578
10 0 59629  27540.00000  0    337248.207   4420953.458  -5499718.645
10 0 59629  27720.00000  0    600937.719   3293679.222  -6219429.041
10 0 59629  27900.00000  0    811616.677   2040844.563  -6712161.024
99
